"Dealership_Name","Street","City","State","Years_of_Operation","Latitude","Longitude"
"George Blakely & Son","","Addison","MI","<--1948-->",41.98752,-84.34935
"J. C. Van Doren","","Adrian","MI","1902-1912-->",41.8953,-84.03982
"Raymond Auto Sales","","Adrian","MI","<--1944",41.8953,-84.03982
"Lenawee Equipment Company","","Adrian","MI","<--1948-->",41.8953,-84.03982
"F & H Garage","","Adrian","MI","<--1958-->",41.8953,-84.03982
"Adrian LP Gas, Inc.","","Adrian","MI","<--1969-->",41.8953,-84.03982
"Albro Motor Sales","711 South Main Street","Adrian","MI","<--1973-1974-->",41.88914,-84.04276
"Dan's Farm Supply, Inc.","4248 South Adrian Highway","Adrian","MI","1989-2011",41.8564,-84.04369
"Archbold Equipment","4248 South Adrian Highway","Adrian","MI","<--2013-2016-->",41.8564,-84.04369
"H. K. Farm Equipment","Beecher Road","Adrian","MI","",41.88906,-84.04547
"Ormsbee Implement Company","","Afton","MI","",45.24646,-84.49351
"Smith Farm Service (Division of SSH Corp.)","","Akron","MI","<--1948-1969-->",43.56708,-83.51416
"Russell's Garage","","Alba","MI","<--1948-1958-->",44.97493,-84.97022
"H & M Sales & Service, Inc.","1707 Jackson Road","Albion","MI","<--1948-1958-->",42.33415,-84.71813
"William Danneberg","","Allegan","MI","<--1911-1912-->",42.53051,-85.8505
"A. H. Foster","","Allegan","MI","<--1920-->",42.53051,-85.8505
"Reed Implement Company","","Allegan","MI","<--1947",42.53051,-85.8505
"A. J. Gilmore","","Allegan","MI","<--1948-->",42.53051,-85.8505
"Smith & Ross","West M-40 & M-89","Allegan","MI","<--1958-1974-->",42.46006,-85.72281
"Robert J. Lemmen","","Allendale","MI","<--1944",42.97457,-85.95409
"F. W. Kennedy Farm Service","","Allendale","MI","<--1948-->",42.97457,-85.95409
"Allendale Farm Supply","","Allendale","MI","<--1958-1967-->",42.97457,-85.95409
"Grand Valley Truck & Tractor","6660 Lake Michigan Drive","Allendale","MI","<--1973-1984-->",42.9722,-85.95027
"J. S. Erskine","","Allenville","MI","<--1948-->",46.05611,-84.91293
"Alma Equipment Company","","Alma","MI","<--1948-->",43.37764,-84.65859
"Forest Hill Garage","","Alma","MI","<--1962-1964-->",43.37764,-84.65859
"Almont Welding Company","","Almont","MI","<--1958-->",42.92055,-83.04511
"E. F. Smith / Everett F. Smith","","Alpena","MI","<--1948-1967-->",45.06065,-83.43146
"H-Way Motor Company","","Alpena","MI","<--1969-->",45.06065,-83.43146
"Thompson Sales & Service (Inc.)","3550 Highway 23 South","Alpena","MI","<--1974-1990-->",45.01592,-83.46457
"Elmer Dintaman & Son","","Alto","MI","<--1948-->",42.8556,-85.38418
"Snyder Farm Supply (Inc.)","","Alto","MI","<--1994-->",42.8556,-85.38418
"Amasa Coop Society","","Amasa","MI","<--1948-->",46.23321,-88.45611
"Benz Bros.","","Ann Arbor","MI","<--1916-->",42.28142,-83.74848
"Ann Arbor Implement Company","210 South 1st Street","Ann Arbor","MI","<--1948-1956-->",42.28002,-83.75137
"Miller-Jahnke Motors","","Ann Arbor","MI","<--1958-->",42.28142,-83.74848
"George W. Stover / Geo. W. Stover","","Arden","MI","1910-1932-->",41.99108,-86.39508
"J. D. Herdell","","Argyle","MI","<--1948",43.553206,-82.928643
"D. A. Herdell","","Argyle","MI","<--1948-->",43.553206,-82.928643
"Hagaman Lappin","","Armada","MI","<--1948-->",42.84401,-82.88465
"Lappin Implement Company","","Armada","MI","",42.84401,-82.88465
"C. L. Kent","","Ashley","MI","<--1948-1958-->",43.18782,-84.47387
"Kent Implement Company","121 North Sterling Street","Ashley","MI","<--1962-1984-->",43.18755,-84.47564
"E. J. Christie","","Au Gres","MI","<--1948-->",44.04702,-83.69439
"Dittenber's Sales & Service","","Au Gres","MI","<--1958-1969-->",44.04702,-83.69439
"G. R. Snyder","","Auburn","MI","<--1948-->",42.67032,-83.22226
"Wieland Sales (Inc.)","430 East Midland Street","Auburn","MI","<--1971-1979-->",43.6034,-84.06511
"Aura Farms Coop","","Aura","MI","<--1948-->",46.86021,-88.31982
"A. J. Dunn","","Bad Axe","MI","<--1948-->",43.80206,-83.00044
"Bad Axe Farm Equipment Company","","Bad Axe","MI","<--1958-->",43.80206,-83.00044
"Jamison Texaco Service","","Baldwin","MI","<--1962-1964-->",43.898,-85.85164
"Williams Oil Company","","Baldwin","MI","<--1969-->",43.898,-85.85164
"Cleve Stowman","","Bangor","MI","<--1948-1958-->",42.31398,-86.11395
"Eddies Sales & Service","","Bangor","MI","<--1967-1973-->",42.31398,-86.11395
"George W. Stover","","Baroda","MI","<--1920-->",41.95627,-86.48822
"Myron Miller","","Baroda","MI","<--1948-1958-->",41.95627,-86.48822
"Miller Equipment Company","8941 1st Street","Baroda","MI","<--1962-1974-->",41.9564,-86.48533
"Barryton Coop Association","","Barryton","MI","<--1948-->",43.75594,-85.14982
"F. G. Smith","","Bath","MI","<--1921-->",42.81318,-84.44295
"Strong Hardware Company","","Battle Creek","MI","<--1920-->",42.31918,-85.18245
"Kendall Hardware Mill Supply, Inc.","","Battle Creek","MI","<--1948-->",42.31918,-85.18245
"Morrison's Truck Sales & Service","","Battle Creek","MI","<--1958-->",42.31918,-85.18245
"Commercial Sales & Service","","Battle Creek","MI","<--1962-1967-->",42.31918,-85.18245
"Behnke & Sons","","Battle Creek","MI","<--1969-->",42.31918,-85.18245
"Erich Henkel Lincoln-Mercury","375 West Dickman Road","Battle Creek","MI","<--1977-->",42.3186,-85.19652
"Colthurst's, Inc.","12200 East Michigan Avenue","Battle Creek","MI","",42.28505,-85.05863
"T. C. Tupper / Thos. C. Tupper","1000 Salzburg Avenue","Bay City","MI","<--1947-1948-->",43.58089,-83.91419
"Nash-Schumacher Sales & Service, Inc.","","Bay City","MI","<--1958-->",43.59778,-83.88453
"Schumacher Sales & Service, Inc.","3480 North Union Street","Bay City","MI","<--1962-1974-->",43.60926,-83.90914
"Tillman Hardware Company, Inc.","","Beal City","MI","<--1947",43.67001,-84.90863
"Johnson Brothers","","Bear Lake","MI","<--1948-1962-->",44.42247,-86.1496
"Charles Monks","","Bellevue","MI","<--1945",42.44375,-85.01808
"Keith Implement Company","","Bellevue","MI","<--1948-1958-->",42.44375,-85.01808
"Pelton Brothers","","Bentley","MI","<--1945",43.94813,-84.13449
"McCormick-Deering Store","449 East Main Street","Benton Harbor","MI","<--1940-1944",42.11667,-86.45268
"Gersonde Equipment Company (Inc.)","520 West Main Street","Benton Harbor","MI","<--1948-1980-->",42.11299,-86.46544
"Gersonde Equipment Company (Inc.)","2450 South Highway 139","Benton Harbor","MI","<--1948-1980-->",42.07368,-86.43702
"Cutler's Sales & Service","Highway 31","Benzonia","MI","<--1958-1973-->",44.63227,-86.09063
"George W. Stover / Geo. W. Stover","","Berrien Springs","MI","<--1920-1930-->",41.9464,-86.33865
"Evans Agricultural Services, Inc.","7994 Scottdale Road","Berrien Springs","MI","<--1979-1984-->",41.97139,-86.42749
"Christian Motor Sales","","Berville","MI","<--1958-->",42.9099,-82.88328
"W. I. Sloss","","Big Rapids","MI","<--1912-->",43.70221,-85.48398
"Jacobson Lidell","","Big Rapids","MI","<--1948-->",43.70221,-85.48398
"Franck & Wood Sales & Service","","Big Rapids","MI","<--1958-->",43.70221,-85.48398
"Symonds Equipment, Inc.","Highway 131 North","Big Rapids","MI","<--1967-->",43.70372,-85.52801
"Big R Volkswagen","Highway 131 North","Big Rapids","MI","<--1973-->",43.70372,-85.52801
"C. S. Dewey","","Birch Run","MI","<--1918",43.24571,-83.79433
"Edward Graham","","Birch Run","MI","<--1929-->",43.24571,-83.79433
"R. C. Ballard","","Birch Run","MI","<--1944",43.24571,-83.79433
"Muehlenbeck Sales & Service","","Birch Run","MI","<--1948-1964-->",43.24571,-83.79433
"H. B. Parks & Company","","Birmingham","MI","<--1912-->",42.54381,-83.21484
"Green & Heacock","","Birmingham","MI","<--1919-->",42.54381,-83.21484
"Homer DeWitt","","Blanchard","MI","<--1945",43.51995,-85.08004
"Clement & Clapper","","Blissfield","MI","<--1928-->",41.8326,-83.86271
"Wilt & Knoblauch","317 East Adrian Street","Blissfield","MI","<--1948-->",41.82998,-83.85535
"Kohlman's International Sales (Inc.)","317 East Adrian Street","Blissfield","MI","<--1970-1984-->",41.82998,-83.85535
"Kohlman's International Sales (Inc.)","245 North Jipson Street","Blissfield","MI","<--1970-1984-->",41.83148,-83.85543
"Schneider's Frame & Axle Company / Inc.","10003 Toledo Road","Blissfield","MI","<--1958-1985-->",43.88425,-85.77748
"Arch S. Merrifield","","Bloomingdale","MI","<--1911-->",42.3838,-85.95861
"E. J. Merrifield","","Bloomingdale","MI","<--1912-->",42.3838,-85.95861
"F. W. Dilworth & Son(s)","214-216 Ray Street","Boyne City","MI","<--1948-1964-->",45.21251,-85.01235
"Boyne City Cooperative Company","","Boyne City","MI","<--1967-1969-->",45.21269,-85.01167
"Miller Implement Store","","Breckenridge","MI","<--1948-1955-->",43.40797,-84.47478
"McCormick Farm Equipment Store","","Breckenridge","MI","<--1958-1962-->",43.40797,-84.47478
"International Harvester Sales & Service","","Breckenridge","MI","<--1967-->",43.40797,-84.47478
"B & W Farm Center","7581 East Monroe Road","Breckenridge","MI","<--1990-1994-->",43.40882,-84.45769
"J. H. Maurer","","Bridgewater","MI","<--1948",42.16087,-83.90232
"Alex Gibson","","Britton","MI","<--1944",41.98674,-83.83088
"Briton Implement Company","","Britton","MI","<--1948-->",41.98674,-83.83088
"Bruce Chevrolet Sales","","Bronson","MI","<--1948-->",41.87235,-85.19468
"G. R. Boyce","","Brooklyn","MI","<--1944",42.10788,-84.24792
"L. E. Brooks","","Brown City","MI","<--1948-->",43.21214,-82.98928
"Settlers Co-op Trading Company","","Bruce Crossing","MI","<--1948-->",46.53484,-89.17865
"Gils Auto Exchange","","Bruce Crossing","MI","<--1967-1969-->",46.53484,-89.17865
"Laporte County Co-op","","Buchanan","MI","<--1994-->",41.82737,-86.35955
"E. W. Howland","","Burlington","MI","<--1910-->",42.10787,-85.07832
"George Hammond","","Byron","MI","<--1930-->",42.82398,-83.9444
"Seaman's Garage","133 South Saginaw Street","Byron","MI","<--1958-1973-->",42.81387,-83.94378
"Dahlstrom's Garage","","Cadillac","MI","<--1958-->",44.25039,-85.39943
"Brower's Auto Electric","","Cadillac","MI","<--1962-1967-->",44.25039,-85.39943
"Brower's Sales & Service","500 North Mitchell Street","Cadillac","MI","<--1969-1973-->",44.25409,-85.4023
"Wenger & Clemons","","Caledonia","MI","<--1920-->",42.78926,-85.51477
"Harry D. Clemens","","Caledonia","MI","<--1945",42.78926,-85.51477
"Caledonia Implement Store","","Caledonia","MI","<--1948-1958-->",42.78926,-85.51477
"Caledonia Farm Equipment, Inc.","9740 Cherry Valley Avenue","Caledonia","MI","<--1984-->",42.78794,-85.50543
"Wm. P. Joyce","","Cannonsburg","MI","<--1948",43.05058,-85.46611
"Elmer Lang","","Capac","MI","<--1948-->",43.01261,-82.92844
"Fillmore Motor Sales","","Capac","MI","<--1958-->",43.01261,-82.92844
"Elmer Lang & Sons","136 South Main Street","Capac","MI","<--1979-1984-->",43.01117,-82.92821
"J. J. Lucke","","Carleton","MI","<--1918-1919-->",42.05926,-83.39087
"Cyril Bergmooser","","Carleton","MI","<--1948-->",42.05926,-83.39087
"Carleton Farm Supply, Inc.","11850 Grafton Road","Carleton","MI","1951-2015-->",42.04834,-83.37882
"G. A. Johnson","","Carlshend","MI","<--1946",46.32566,-87.21415
"H. R. Hyde & Son","","Caro","MI","<--1948-1958-->",43.48994,-83.39711
"H. R. Hyde Company","","Caro","MI","<--1962-1969-->",43.48994,-83.39711
"Hedley Equipment Company","1800 West Caro Road","Caro","MI","<--1968-->",43.40861,-83.41535
"Janson Equipment of Caro, Inc.","1800 West Caro Road","Caro","MI","<--1979-1984-->",43.40861,-83.41535
"H. J. Martin (Company)","115 East Main Street","Carson City","MI","<--1948-1984-->",43.17732,-84.8458
"C. C. McGregor & Sons","","Carsonville","MI","<--1914-->",43.42864,-82.67183
"G. L. Humphreys & Sons","","Casnovia","MI","<--1937-1948-->",43.23422,-85.79173
"Carlson Bros. Garage","","Casnovia","MI","<--1958-->",43.23422,-85.79173
"E. Paul & Son","East Main Street","Cass City","MI","<--1924-1948",41.8194,-86.23547
"E. Paul & Son","6556 Main Street","Cass City","MI","<--1924-1948",43.60089,-83.17305
"H. O. Paul Company","6556 Main Street","Cass City","MI","1948-1959-->",43.60089,-83.17305
"Frederick Herscher","","Cassopolis","MI","<--1948-->",41.91538,-86.01254
"Bontrager Auto Sales","","Cassopolis","MI","<--1958-->",41.91538,-86.01254
"Tom Watson Implement (Company)","","Cedar Springs","MI","<--1948-->",43.21998,-85.54993
"Watson & Pratt Implement Company","345 North Main Street","Cedar Springs","MI","<--1958-1966-->",43.22625,-85.55121
"Charlotte Implement Company","","Charlotte","MI","<--1948-->",42.56395,-84.83589
"Faynor Bros. Implement Sales","","Charlotte","MI","<--1958-->",42.56395,-84.83589
"Ripley's Sales & Service","","Charlotte","MI","<--1958-->",42.56395,-84.83589
"Lovell Implement Company / Inc.","","Charlotte","MI","<--1962-1970-->",42.56395,-84.83589
"Osborn Buick-Opel","214 Lansing Street","Charlotte","MI","<--1974-->",42.56639,-84.8287
"J. R. Fueslein, Inc.","420 Lansing Street","Charlotte","MI","<--1975-1984-->",42.57566,-84.8191
"Snyder Farm Supply","","Charlotte","MI","<--1994-->",42.56395,-84.83589
"Chimner Brothers","201 South Main Street","Cheboygan","MI","<--1948-1962-->",45.64174,-84.47888
"Chimner Brothers","201 South Main Street","Cheboygan","MI","<--1971-->",45.64174,-84.47888
"Cheboygan Motors","240 South Main Street","Cheboygan","MI","<--1973-1974-->",45.64118,-84.48004
"L. J. Ormsbee Motors, Inc.","South Main Street","Cheboygan","MI","<--1979-1980-->",45.63556,-84.48236
"Merkel Brothers","","Chelsea","MI","<--1945",42.31432,-84.02037
"Chelsea Implement Company (Inc.)","Chelsea-Manchester Road","Chelsea","MI","<--1948-1958-->",42.16286,-84.0353
"Chelsea Motors, Inc.","","Chelsea","MI","<--1962-1964-->",42.31432,-84.02037
"Chesaning Sales Company","Broad Street","Chesaning","MI","<--1948-1964-->",43.1834,-84.11267
"Thompson & Wilkinson","","Clare","MI","<--1919-1928-->",43.81876,-84.77045
"S. A. Wilkinson","West 4th Street","Clare","MI","<--1930-1935-->",43.81876,-84.77045
"S. A. Wilkinson","East 4th Street","Clare","MI","<--1930-1935-->",43.81877,-84.76423
"George J. Lehr / Geo. J. Lehr","","Clare","MI","<--1938-1958",43.81876,-84.77045
"Humphrey Equipment Company","403 East 4th Street","Clare","MI","1958-1966",43.81877,-84.76423
"Climax Garage","","Climax","MI","<--1948-1958-->",42.23666,-85.33582
"Wm. H. Eaton","","Clio","MI","<--1937-->",43.17736,-83.73462
"Conlee Sales / Conlee Oil & Tractor Sales / Conlee Oil Company","","Clio","MI","1938-1962-->",43.17736,-83.73462
"Clark's Auto Sales","","Clio","MI","<--1958-->",43.17736,-83.73462
"G. W. Harding & Son","","Coldwater","MI","<--1918-->",41.94063,-85.00072
"S. E. Tupper","","Coldwater","MI","<--1944",41.94063,-85.00072
"R. F. Moore Implement Company","117 West Chicago Street","Coldwater","MI","<--1948-1957-->",41.93977,-84.99577
"Pillsbury Motor Sales","","Coldwater","MI","<--1958-1962-->",41.94063,-85.00072
"Ashdown Motor Sales","","Coldwater","MI","<--1967-->",41.94063,-85.00072
"Andy's Motor Sales","335 East Chicago Street","Coldwater","MI","<--1973-1974-->",41.93865,-84.98889
"A. F. Black","","Coleman","MI","<--1944",43.75641,-84.58647
"Allen's Implement Store","981 East Railway Street ","Coleman","MI","<--1948-1974",43.7558,-84.58511
"Gene's Truck Sales","981 East Railway Street ","Coleman","MI","1974-1981",43.7558,-84.58511
"J. W. Brigham & Son","","Concord","MI","<--1948-->",42.17613,-84.64465
"Brigham Hardware","119 North Main Street","Concord","MI","<--1963-1984-->",42.17892,-84.64461
"J. H. Kash, Inc.","","Constantine","MI","<--1958-->",41.84214,-85.66913
"Lemmen Pontiac & Farm Equipment","13 East Randall Street","Coopersville","MI","<--1948-1958-->",43.06075,-85.92682
"E. R. Lehto","","Copemish","MI","<--1948-->",44.48183,-85.92446
"Chas. A. Hutula","","Covington","MI","<--1948-->",46.50535,-88.55237
"Charles McAllister","","Croswell","MI","<--1948-->",43.27902,-82.62184
"Hopkins Farm Service","","Croswell","MI","<--1958-1967-->",43.27902,-82.62184
"Hopkins Trucks","174 South Howard Avenue","Croswell","MI","<--1969-1985-->",43.26512,-82.62023
"M. Malkin & Sons / Malkin & Sons (Inc.)","11 Superior Avenue","Crystal Falls","MI","<--1948-1990-->",46.09675,-88.33401
"W. E. Reader & Company","","Custer","MI","<--1925-->",43.9505,-86.2186
"Daggett Mercantile Company","","Daggett","MI","<--1948-->",45.4635,-87.60385
"Hanson Farm Equipment Company","Highway 1","Daggett","MI","<--1978-1984-->",45.46351,-87.59828
"Lloyd Smith","","Davison","MI","<--1946",43.03176,-83.51799
"O. S. Zeis & Son","","Davison","MI","<--1948-1958-->",43.03176,-83.51799
"Dick Zeis (Inc.)","1146 South State Road","Davison","MI","<--1962-1977-->",43.01596,-83.51808
"International Harvester Company ~ Truck Branch","4840 Wyoming Avenue","Dearborn","MI","<--1971-1980-->",42.32307,-83.15588
"G. R. Gale","","Decatur","MI","<--1948-->",42.10868,-85.97432
"Vliek & Brucks","","Decatur","MI","<--1958-->",42.10868,-85.97432
"George E. Paige","","Deckerville","MI","<--1923",43.52669,-82.73499
"H. J. Darlington","","Deckerville","MI","<--1946",43.52669,-82.73499
"Turnbull Machinery Sales & Service","","Deckerville","MI","<--1959-->",43.52669,-82.73499
"Deerfield Hardware","","Deerfield","MI","<--1948-->",41.88884,-83.77926
"Ralph J. Handy","554 Grand River Avenue","Detroit","MI","<--1919-1920-->",42.38248,-83.17316
"Ralph J. Handy","1900 East Grand Blvd.","Detroit","MI","<--1919-1920-->",42.37467,-83.03902
"Wolverine Tractor & Equipment Company","","Detroit","MI","<--1958-1961-->",42.33294,-83.04784
"Coon Bros. Nash","","Detroit","MI","<--1958-->",42.33294,-83.04784
"Bud Motor Sales","","Detroit","MI","<--1958-->",42.33294,-83.04784
"Rashid Motor Sales","","Detroit","MI","<--1958-->",42.33294,-83.04784
"Simpson Sales & Service","","Detroit","MI","<--1958-1967-->",42.33294,-83.04784
"Kane Bros. Sales & Service","","Detroit","MI","<--1958-1967-->",42.33294,-83.04784
"Kane Truck Sales & Service","10501 Fenkell Avenue","Detroit","MI","<--1969-1974-->",42.40003,-83.27689
"Redford Sales & Service","","Detroit","MI","<--1962-1969-->",42.33294,-83.04784
"Renger's Sales & Service","10210 Chalmers Avenue","Detroit","MI","<--1964-1976-->",42.41425,-82.97034
"Kenwood Truck Repair","","Detroit","MI","<--1969-1971-->",42.33294,-83.04784
"International Harvester Company","1225 Vermont Street","Detroit","MI","<--1921-->",42.32381,-83.06972
"International Harvester Company","5915 West Warren Avenue","Detroit","MI","<--1958-1971-->",42.34313,-83.12537
"RPM Machinery, Inc.","1300 Walnut Dale Drive","Dorr (Wayland)","MI","<--2014-2016-->",42.7299,-85.67453
"Dowagiac Farmers Cooperative Association, Inc.","","Dowagiac","MI","<--1931-1958-->",41.98307,-86.10825
"Trues Standard Service","","Dowagiac","MI","<--1964-1969-->",41.98307,-86.10825
"True Motor Sales","","Dowagiac","MI","<--1973-1974-->",41.98307,-86.10825
"Kenneth Sterner / Kenneth E. Sterner","","Dryden","MI","<--1948-1967-->",42.94599,-83.12532
"Tom Zemmer, Inc.","","Dryden","MI","<--1958-->",42.94599,-83.12532
"Harry R. Busch","","Dundee","MI","<--1948-->",41.95727,-83.65976
"Backus Implement Company","","Dundee","MI","<--1958-->",41.95727,-83.65976
"Salenbien Bros. (Implement Company)","187 Monroe Street","Dundee","MI","<--1962-1984-->",41.95265,-83.64719
"Salenbien Bros. (Implement Company)","16805 Tecumseh Street","Dundee","MI","<--1962-1984-->",41.95859,-83.66782
"Heartland Equipment, Inc.","","Dundee","MI","1987-1988",41.95727,-83.65976
"Howard Mack","","Durand","MI","<--1948-->",42.91077,-83.98778
"East Jordan Farmers Coop Association","","East Jordan","MI","<--1948",45.1542,-85.12756
"Fred Gale","","East Leroy","MI","<--1921-->",42.16638,-85.20723
"Barnes Lumber & Supplies","","Eastport","MI","<--1969-->",45.10719,-85.34689
"Bryce Barnes (Inc.)","","Eastport","MI","<--1973-1980-->",45.10719,-85.34689
"Barnes International Trucks","","Eastport","MI","",45.10719,-85.34689
"Mulkeys Motor Sales","","Eaton Rapids","MI","<--1948-->",42.51474,-84.65645
"Foster Farm Equipment","","Eaton Rapids","MI","<--1958-->",42.51474,-84.65645
"George W. Stover","","Eau Claire","MI","<--1920-->",41.98348,-86.30501
"Lyle Gransden","","Edenville","MI","<--1948-1974-->",43.7995,-84.38163
"Verplanck's","570 East Main Street","Edmore","MI","<--1948-1957-->",43.40812,-85.03313
"Elk Rapids Coop Association","","Elk Rapids","MI","<--1948",44.89863,-85.4096
"Elkton Hardware Company","","Elkton","MI","<--1948-->",43.81924,-83.17947
"Ellsworth Farm Store","","Ellsworth","MI","<--1948-1967-->",45.16907,-85.2423
"Frank Zaremba","","Elmira","MI","<--1948-->",45.06323,-84.85494
"Zaremba Equipment (Inc.)","8804 M-32 West","Elmira","MI","<--1973-1990-->",45.0603,-84.78847
"Boyd Williams","","Elsie","MI","<--1945",43.092,-84.38725
"Fred Weir","","Emmett","MI","<--1948-->",42.99073,-82.76517
"Fred Weir & Son","","Emmett","MI","<--1962-->",42.99073,-82.76517
"Magnusson Bros.","","Ensign","MI","<--1948-->",45.89752,-86.86813
"Wm. E. Gilday","","Erie","MI","<--1921-->",41.79398,-83.49681
"J. C. Stark","","Erie","MI","<--1946",41.79398,-83.49681
"Bedford Equipment","","Erie","MI","<--1958-->",41.79398,-83.49681
"Escanaba Machine Company","1704 Ludington Street","Escanaba","MI","<--1948-1984-->",45.74574,-87.06252
"Bark River Culvert & Equipment Company","","Escanaba","MI","<--1965-->",45.74574,-87.0713
"Bark River Culvert & Equipment Company","430 North Lincoln Drive","Escanaba","MI","<--1978-1980-->",45.75068,-87.07826
"J. O. Gower / J. O. Gower Hardware / Gower Hardware & Farm Equipment","","Eureka","MI","<--1948-1975-->",43.06773,-84.54836
"Sandburg & Allison","","Evart","MI","<--1920-->",43.90059,-85.25938
"Everett Implement Company","31200 Grand River Avenue","Farmington","MI","<--1948-1962-->",42.45634,-83.35548
"Grandale Motor Sales","","Farmington","MI","<--1958-->",42.48467,-83.35918
"International Harvester Company","31666 West 8 Mile Road","Farmington Hills","MI","<--1971-1976-->",42.44155,-83.35945
"Reighard International Trucks, Inc.","31666 West 8 Mile Road","Farmington Hills","MI","<--1985-1990-->",42.44155,-83.35945
"John V. Sundstrom","","Felch","MI","<--1948-->",45.99657,-87.82533
"Lee Kerton","","Fenton","MI","<--1948",42.7984,-83.70997
"Bedford Equipment Company","","Fenton","MI","<--1948-->",42.7984,-83.70997
"L. E. Walker & Son","","Fenwick","MI","<--1948",43.14923,-85.08408
"Wells & Son","","Fife Lake","MI","<--1948-->",44.47046,-85.38922
"Bunte Implement Company","","Flat Rock","MI","<--1948-1958-->",42.09628,-83.29371
"Sharp Hardware & Implement Company","","Flint","MI","<--1945",43.00992,-83.68511
"Flint Farm Equipment, Inc.","","Flint","MI","<--1948-->",43.00992,-83.68511
"C & S Motors, Inc.","113 South Dort Highway","Flint","MI","1946-1990-->",43.02468,-83.65422
"J & H Bok","","Forest Grove","MI","<--1948-->",42.796694,-85.861700
"Forest Grove Farm Equipment, Inc.","3763 Perry Street","Forest Grove (Hudsonville)","MI","<--1979-2012-->",42.79666,-85.86486
"RPM Machinery, Inc.","3763 Perry Street","Forest Grove (Hudsonville)","MI","<--2013-->",42.79666,-85.86486
"F. Granger & Sons","","Fountain","MI","<--1942-->",44.04827,-86.17836
"Frank Granger & Son","","Fountain","MI","<--1948",44.04827,-86.17836
"Vance Rosenow","","Fountain","MI","<--1948-->",44.04827,-86.17836
"Fox Brothers","","Fowler","MI","<--1923-->",43.00186,-84.74107
"Fox Implement Company","","Fowler","MI","<--1948-->",43.00186,-84.74107
"Fox Implement Company","257 South Main Street","Fowler","MI","<--1979-1984-->",43.00107,-84.73937
"Norms Auto Sales","","Frankenmuth","MI","<--1962-1967-->",43.33114,-83.73987
"Schluckebiers, Inc.","312 North Main Street","Frankenmuth","MI","<--1969-1976-->",43.33865,-83.73876
"Frankenmuth Chrysler, Inc.","312 North Main Street","Frankenmuth","MI","<--1977-->",43.33865,-83.73876
"C. J. Reindel","","Fraser","MI","<--1946",42.54223,-82.94983
"Don. F. Meyer (Company)","8470 Midland Road","Freeland","MI","<--1948-1969-->",43.5327,-84.1309
"D. M. Jones","","Fremont","MI","<--1920-->",43.46711,-85.93999
"Jordan's","","Fremont","MI","<--1948-1958-->",43.46711,-85.93999
"Muskegon Truck & Tractor Company","","Fremont","MI","<--1962-1964-->",43.46711,-85.93999
"Stacey Chrysler-Plymouth","52 West Main Street","Fremont","MI","<--1973-1976-->",43.46682,-85.94696
"John Woods & Son","","Galien","MI","<--1930-->",41.80286,-86.49896
"A. P. Taylor (Inc.)","","Galien","MI","<--1948-1957-->",41.80286,-86.49896
"Middlebelt Motor Mart","","Garden City","MI","<--1958-->",42.32557,-83.33091
"Bill Cochrane, Inc.","","Garden City","MI","<--1964-1969-->",42.32557,-83.33091
"Ford Hardware & Implement Company","","Gaylord","MI","<--1931-1947",45.0274,-84.67389
"Paul H. Kammeyer","","Gaylord","MI","<--1948-1955-->",45.0274,-84.67389
"Otsego County Cooperative Association, Inc.","","Gaylord","MI","<--1958-1962-->",45.0274,-84.67389
"D. F. Morrison","","Germfask","MI","<--1948-->",46.24689,-85.92631
"Nordstrom Garage","","Gladstone","MI","<--1958-->",45.84756,-87.02068
"Woodward & Dort","","Gladwin","MI","<--1918-->",44.03894,-84.34361
"Frank E. Ward","","Gladwin","MI","<--1948-1958-->",44.03894,-84.34361
"Drake Tractor Sales","","Gladwin","MI","<--1969-->",44.03894,-84.34361
"Glendale Equipment Sales, Inc.","4000 M-43 West","Glendale (Paw Paw)","MI","<--1973-1984-->",42.30223,-85.96443
"Wilkinson Implement Company (Inc.)","6994 114th Street","Glenn","MI","<--1948-1973-->",43.14999,-85.70806
"Malcolm F. Dear","","Glennie","MI","<--1947",44.56061,-83.72552
"Alvin M. Clouse","","Glennie","MI","<--1948-->",44.56061,-83.72552
"Karpp Sales & Service","","Glennie","MI","<--1958-1976-->",44.56061,-83.72552
"Throop Farm Equipment (Store)","","Grand Blanc","MI","<--1948-1951-->",42.92478,-83.62259
"Grand Haven Farm Bureau","715 Washington Street","Grand Haven","MI","<--1935-1948-->",43.06091,-86.21818
"Grand Haven Brake Clinic","","Grand Haven","MI","<--1958-->",43.0588,-86.22799
"Fleet Sales & Service","","Grand Haven","MI","<--1962-1964-->",43.0588,-86.22799
"Grand Haven Chrysler-Plymouth","","Grand Haven","MI","<--1969-->",43.0588,-86.22799
"Leonard Wiseman","","Grand Ledge","MI","<--1948-->",42.75396,-84.74514
"Garlock Equipment (Sales)","143 Orchard Street","Grand Ledge","MI","<--1958-1994-->",42.75823,-84.73747
"J. L. Purchase","","Grand Rapids","MI","<--1917-->",42.96546,-85.67017
"Benton Implement Company","","Grand Rapids","MI","<--1945",42.96546,-85.67017
"Keizer Implement Company","2121 Alpine Avenue NW","Grand Rapids","MI","<--1948-1962-->",43.00194,-85.68919
"Keizer Equipment Company","2122 Turner Ave NW","Grand Rapids","MI","<--1969-1984-->",43.00175,-85.67756
"Wolverine Tractor & Equipment Company","2450 28th Street SW","Grand Rapids","MI","<--1958-1980-->",42.91322,-85.72733
"Gezon Motors","3985 Plainfield Avenue NE","Grand Rapids","MI","<--1973-->",43.0361,-85.61852
"International Harvester Company","Wealthy Street SW & Ellsworth Avenue SW","Grand Rapids","MI","<--1921-->",42.86478,-85.70055
"International Harvester Company","168-178 Wealthy Street SW","Grand Rapids","MI","<--1921-->",42.95581,-85.67314
"International Harvester Company ~ Truck Branch","215 Hall Street SW","Grand Rapids","MI","1953-1980-->",42.94203,-85.67294
"Woodland International Trucks, Inc.","215 Hall Street SW","Grand Rapids","MI","<--1985-1990-->",42.94203,-85.67294
"Wieland International Trucks, Inc.","215 Hall Street SW","Grand Rapids","MI","<--2007-->",42.94203,-85.67294
"Western Michigan International Trucks, Inc.","215 Hall Street SW","Grand Rapids","MI","<--2008-2011-->",42.94203,-85.67294
"Wilson Avenue Garage","","Grandville","MI","<--1958-->",42.90534,-85.7628
"Tractor Service","","Grant","MI","<--1948-->",43.33506,-85.80925
"Hultgren Motor Sales","","Grant","MI","<--1959-1964-->",43.33506,-85.80925
"Wolfe Sales Company","","Grass Lake","MI","<--1944",42.25192,-84.208
"Grass Lake Implement Company","","Grass Lake","MI","<--1948-->",42.25192,-84.208
"Corwin Auto Sales","","Grayling","MI","<--1958-->",44.81762,-84.66423
"Knibbs Service","","Grayling","MI","<--1962-1964-->",44.81762,-84.66423
"Don L. Beardslee","","Greenville","MI","<--1921-->",43.1774,-85.25319
"John S. Watson (Inc.)","5498 North Greenville Road","Greenville","MI","<--1948-1976-->",43.29554,-85.2507
"Charles J. Morton / Chas. J. Morton","","Hadley","MI","<--1948-1958-->",42.95417,-83.40365
"H. S. Townsend","","Hale","MI","<--1944",44.37799,-83.80486
"E. J. McIlmurray","","Hale","MI","<--1948-->",44.37799,-83.80486
"H. J. Lampen","","Hamilton","MI","",42.67763,-86.00596
"Komula Sales & Service","","Hancock","MI","<--1958-->",47.126871,-88.580956
"Portage Equipment Company","Royce Road","Hancock","MI","<--1962-1977-->",47.12699,-88.57105
"U. P. Oil Company","","Hancock","MI","",47.126871,-88.580956
"S. R. Knowles & Company","","Hanover","MI","<--1948-->",42.10104,-84.55366
"Russell Stephens Company","","Hanover","MI","<--1958-->",42.10104,-84.55366
"Albert Binkle","","Harbor Beach","MI","<--1921-->",43.84596,-82.65156
"Huron Farm Implement Shop","","Harbor Beach","MI","<--1946",43.84596,-82.65156
"Huron Farm & Home Equipment","","Harbor Beach","MI","<--1948-->",43.84596,-82.65156
"Osentoski Sales & Service","","Harbor Beach","MI","<--1958-->",43.84596,-82.65156
"Elliott's Garage","","Harbor Springs","MI","<--1958-1967-->",45.42897,-84.98869
"E. M. Wagner","","Harlan","MI","<--1948",44.4569472,-85.8195190
"Stuart D. Huntley / S. D. Huntley","","Harrison","MI","<--1948-1958-->",42.58763,-82.81854
"Alcona Motor Sales","","Harrisville","MI","<--1948-->",44.6591,-83.29447
"Oceana Truck & Tractor Company","","Hart","MI","<--1948-->",43.70308,-86.36356
"Krantz Service Garage","","Hart","MI","<--1962-1969-->",43.70308,-86.36356
"E. L. Cochran","","Haslett","MI","<--1925-->",42.74731,-84.40841
"Wm. Hall","","Hastings","MI","<--1915-->",42.64872,-85.29064
"Edmonds Bros.","","Hastings","MI","<--1920-->",42.64872,-85.29064
"Mahler Motor Sales","","Hastings","MI","<--1948-1964-->",42.64872,-85.29064
"Tony Belli Motors","","Hastings","MI","<--1967-->",42.64872,-85.29064
"McAllister Oil Company","","Hastings","MI","<--1969-->",42.64872,-85.29064
"Knapp & Kohlschmidt","","Hemlock","MI","<--1926-->",43.41543,-84.23092
"Hemlock Auto & Implement Company","","Hemlock","MI","<--1937-1962-->",43.41543,-84.23092
"Husband & Anderson","","Hesperia","MI","<--1948-->",43.56858,-86.04046
"Husband & Turple","","Hesperia","MI","<--1956-->",43.56858,-86.04046
"Burley Motor Sales","","Highland","MI","<--1958-->",42.63789,-83.61916
"Atkinson Hardware Company","","Hillman","MI","<--1948-->",45.06453,-83.89807
"Bartow Equipment Company","State Street","Hillman","MI","<--1958-1984-->",45.06012,-83.90077
"B. H. Bowmaster Company","","Holland","MI","<--1929-->",42.78938,-86.1072
"A. DeVisser & Sons","","Holland","MI","<--1944-1948",42.78938,-86.1072
"G & K Equipment Company, Inc.","","Holland","MI","<--1948-->",42.78938,-86.1072
"Muller Equipment Company","","Holland","MI","<--1958-->",42.78938,-86.1072
"Hoeks Maplewood Service","East 35th Street & Lincoln Avenue","Holland","MI","<--1962-1964-->",42.76553,-86.09714
"Vandenberg Motors","1191 South Washington Avenue","Holland","MI","<--1973-1979-->",42.75556,-86.11548
"Hope Mercantile Company","","Hope","MI","<--1945",43.75672,-84.33885
"Varney Motor Sales","","Houghton","MI","<--1948-->",47.12123,-88.56446
"A. C. Davis","","Houghton Lake","MI","<--1948-->",44.30457,-84.75331
"Armstrong & Barron","","Howell","MI","<--1910-1912-->",42.60717,-83.9296
"R. E. Barron","","Howell","MI","<--1917-->",42.60717,-83.9296
"R. M. Menzies Equipment Company","2321 East Grand River Avenue","Howell","MI","<--1948-->",42.59905,-83.90605
"Everett Implement Company","","Howell","MI","<--1958-->",42.60717,-83.9296
"McCormick Farm Equipment Store","2321 East Grand River Avenue","Howell","MI","<--1962-->",42.59905,-83.90605
"J. E. Dillon","","Hudson","MI","<--1944",41.85499,-84.34848
"L. A. Dillon","","Hudson","MI","<--1948-->",41.85499,-84.34848
"Yager's Service","","Hudson","MI","<--1958-->",41.85499,-84.34848
"Wm. Zeinstra","","Hudsonville","MI","<--1948-->",42.86903,-85.86129
"Hunter & Hunter","","Hulbert","MI","<--1939-1948-->",46.35402,-85.14516
"N. A. Wiepert","","Ida","MI","<--1920-->",41.90949,-83.57352
"W. J. Scheid","","Ida","MI","<--1944",41.90949,-83.57352
"Ida Implement Company","3820 Lewis Road","Ida","MI","<--1947-1970-->",43.11456,-83.67723
"Roy Churchill","","Imlay City","MI","<--1918-1920-->",43.02442,-83.07739
"Lyal H. Watkins","","Imlay City","MI","<--1937-1948-->",43.02442,-83.07739
"Shull's Sales & Service","","Imlay City","MI","<--1958-->",43.02442,-83.07739
"John T. Mys","","Ina","MI","<--1948-->",44.11767,-85.50452
"Ross Benedict","","Ionia","MI","<--1948-->",42.98739,-85.07102
"Romanow Sales & Service","South Steele Street","Ionia","MI","<--1958-->",42.97835,-85.06732
"Harder & Sons","1243 West Lincoln Avenue","Ionia","MI","<--1969-1976-->",42.98673,-85.09094
"Hager Bros.","","Iron Mountain","MI","<--1915-->",45.83085,-88.05959
"E. O. Nelson","","Iron Mountain","MI","<--1945",45.83085,-88.05959
"Howard J. Walter","","Iron Mountain","MI","<--1948-->",45.83085,-88.05959
"Ken's Motor Sales","","Iron Mountain","MI","<--1964-1967-->",45.83085,-88.05959
"Schultz Equipment & Parts Company, Inc.","1300 South Stevenson Avenue","Iron Mountain","MI","<--1969-2015-->",45.79267,-88.07244
"Schultz Equipment & Parts Company, Inc.","1400 South Stephenson Avenue","Iron Mountain","MI","<--1969-2015-->",45.83572,-88.05628
"Haydon Oil & Equipment Company","","Iron River","MI","<--1948-->",46.09281,-88.64256
"Farmers Mart","","Iron River","MI","<--1958-->",46.09281,-88.64256
"L. C. L. Truck Sales","","Iron River","MI","<--1962-->",46.09281,-88.64256
"Lofgren Truck & Equipment Company","Highway 2","Iron River","MI","<--1964-1974-->",46.0915,-88.6345
"Northroads Truck & Equipment, Ltd.","Highway 2","Iron River","MI","<--1976-->",46.0915,-88.6345
"R. A. Heideman","","Ironwood","MI","<--1928-1932-->",46.45301,-90.16885
"Heideman Company","","Ironwood","MI","<--1948-1958-->",46.45301,-90.16885
"C & L Auto Service, Inc.","Highway 2 & Douglas Avenue","Ironwood","MI","<--1962-1977-->",46.46013,-90.1695
"C & L Truck Service, Inc.","Highway 2 & Douglas Avenue","Ironwood","MI","<--1979-1980-->",46.46013,-90.1695
"Bark River Culvert & Equipment Company","","Ironwood","MI","<--1965-->",46.45301,-90.16885
"Bark River Culvert & Equipment Company","825 North Lake Street","Ironwood","MI","<--1979-1980-->",46.4665,-90.15683
"Mullins Service Station","","Ishpeming","MI","<--1964-1967-->",46.39632,-87.54598
"McCormick-Deering Store","","Ithaca","MI","<--1943",43.29165,-84.60758
"Dilts & Miller","","Ithaca","MI","<--1948-->",43.29165,-84.60758
"Dilts Equipment Company","","Ithaca","MI","<--1958-1962-->",43.29165,-84.60758
"Don Goostrey, Inc.","","Ithaca","MI","<--1964-->",43.29165,-84.60758
"Gratiot Equipment Company","1244 East Center Street","Ithaca","MI","<--1969-1985-->",43.2914,-84.58866
"International Harvester Company","319 East Main Street","Jackson","MI","<--1921-->",42.37855,-84.69518
"Isbell Seed Company","","Jackson","MI","<--1948-->",42.24745,-84.40885
"International Harvester Company","701 East Michigan Avenue","Jackson","MI","<--1958-1973-->",42.25213,-84.20351
"Power City International (Trucks, Inc.)","701 East Michigan Avenue","Jackson","MI","<--1974-1985-->",42.25213,-84.20351
"Power City International (Trucks, Inc.)","3001 East High Street","Jackson","MI","<--1974-1985-->",42.22842,-84.36414
"Wise International Trucks","3001 East High Street","Jackson","MI","<--1990-->",42.22842,-84.36414
"L. W. Smith Truck & Trailer Sales","","Jonesville","MI","<--1958-->",41.98396,-84.66164
"McCormick-Deering Store","","Kalamazoo","MI","<--1944",42.28978,-85.58468
"Weimaster Equipment Company","1123 King Highway","Kalamazoo","MI","<--1948-1950-->",42.2869,-85.51752
"Jepkema Truck Sales","","Kalamazoo","MI","<--1958-->",42.28978,-85.58468
"McCormick Farm Equipment Store","1123 King Highway","Kalamazoo","MI","<--1958-1962-->",42.2869,-85.51752
"International Harvester Sales & Service","1123 King Highway","Kalamazoo","MI","<--1964-1974-->",42.2869,-85.51752
"Tandem International / Tandem International Trucks, Inc.","1123 King Highway","Kalamazoo","MI","<--1976-1985-->",42.2869,-85.51752
"Wise International Trucks","5316 Wynn Road","Kalamazoo","MI","<--1990-->",42.27046,-85.52516
"Woodhams Implement Company","","Kalamazoo","MI","",42.28978,-85.58468
"Coop Mercantile & Prod. Company","","Kaleva","MI","<--1948",44.37238,-86.00902
"Spencer's Farm Service","","Kalkaska","MI","<--1948-->",44.73336,-85.17235
"Kinde Hardware Company","","Kinde","MI","<--1910-->",43.94006,-82.99607
"Meagher Farm Service","","Kinde","MI","<--1948-1958-->",43.94006,-82.99607
"Kinderhook Garage","","Kinderhook","MI","<--1945",41.79661,-85.01084
"Lo Dal, Inc.","","Kingsford","MI","<--1967-1969-->",45.797,-88.0717
"Dean Jeffrey","","Kingston","MI","<--1948-1958-->",43.41558,-83.18593
"Blamer's Store","","Kneeland","MI","",44.7869,-84.00924
"Johnson Garage","","L'Anse","MI","<--1964-1969-->",43.58153,-85.30486
"C. L. Dunkleberger","","Lacey","MI","<--1948-->",42.48597,-85.20004
"Swift Bros. Implement Sales","RFD 3 Bellevue","Lacey","MI","<--1956-1961-->",42.48597,-85.20004
"T. J. Burt","","Laingsburg","MI","<--1911-->",42.89081,-84.3521
"Claude Carpenter","","Lake Odessa","MI","<--1913-1920-->",42.77754,-85.13815
"J. & A. Zerfas","","Lake Odessa","MI","<--1944",42.77754,-85.13815
"Senters Implement Company","","Lake Odessa","MI","<--1948-->",42.77754,-85.13815
"Lass Implement Sales","","Lake Odessa","MI","<--1958-->",42.77754,-85.13815
"Lass Sales & Service, Inc.","3978 West Laurel Drive","Lake Odessa","MI","<--1958-1980-->",42.78426,-85.16151
"Milosch Chrysler-Plymouth, Inc.","Lapeer Road","Lake Orion","MI","1970-->",42.75041,-83.24647
"G. L. Humphreys & Sons","","Lakeview","MI","<--1937-->",43.4423,-85.27817
"R. W. Petersen","","Lakeview","MI","<--1948-1958-->",43.4423,-85.27817
"R. & C. C. Bollinger","208 South Lincoln Avenue","Lakeview","MI","<--1976-1980-->",43.43902,-85.27218
"Bollinger's Inc.","208 South Lincoln Avenue","Lakeview","MI","<--1985-1990-->",43.43902,-85.27218
"Hyde Farm Equipment Company, Inc.","Highway M-46","Lakeview","MI","<--1979-1984-->",43.43137,-85.27809
"Lakeview Farm & Lawn","","Lakeview","MI","<--1994-->",43.4423,-85.27817
"Vandervoort Hardware Company","","Lansing","MI","<--1918-->",42.73362,-84.55393
"Lorenz Farm Service","","Lansing","MI","<--1946",42.73362,-84.55393
"Lansing Equipment Company","","Lansing","MI","<--1948-->",42.73362,-84.55393
"International Harvester Company","1106 South Washington Avenue","Lansing","MI","<--1958-->",42.68345,-84.56274
"International Harvester Company","1700 North Grand River Avenue","Lansing","MI","<--1962-1973-->",42.75462,-84.55623
"Capital City International / Capital City International Trucks, Inc.","1700 North Grand River Avenue","Lansing","MI","1974-2017-->",42.75462,-84.55623
"Rumsey Brothers & Twitchell","523 South River Street","Lansing","MI","",42.72003,-84.54711
"Tucker & Bolton","","Lapeer","MI","<--1919-->",43.05074,-83.3186
"McCartney Implement Store","","Lapeer","MI","<--1945",43.05074,-83.3186
"A. Cronin & Son","","Lapeer","MI","<--1948-->",43.05074,-83.3186
"Walter F. Sierakowski","","Lapeer","MI","<--1958-->",43.05074,-83.3186
"Niemala & Sons","","Laurium","MI","<--1948-->",47.23912,-88.44286
"Haffner & Lytle","","Lennon","MI","<--1929-1938",42.98547,-83.92743
"Lennon Implement Company","","Lennon","MI","1938-1948-->",42.98547,-83.92743
"Lennon Implement Company (Holowell & Nash)","","Lennon","MI","<--1957",42.98547,-83.92743
"Jerry's Garage (Jerry Alderman)","","Lennon","MI","1957-1967",42.98547,-83.92743
"C. W. Beier","","Lennox","MI","<--1948-->",41.76681,-83.62069
"Banta & Kitchen","","Leonidas","MI","<--1921-->",42.02294,-85.35188
"J. E. Bacon & Son","","Leslie","MI","<--1946",42.45118,-84.43189
"Leslie Implement Company","","Leslie","MI","<--1948-->",42.45118,-84.43189
"George Sachs","","Lewiston","MI","<--1948-->",44.88397,-84.30542
"LaVerne Medor","","Lincoln","MI","<--1948-1958-->",44.68387,-83.41165
"Johnson Bros.","","Linden","MI","<--1916-->",42.81839,-83.78242
"Sams Farm Equipment","","Litchfield","MI","<--1948-->",42.04383,-84.75846
"Lloyd Heussner Olds","33850 Plymouth Road","Livonia","MI","<--1973-->",42.36894,-83.3767
"Percy J. Read & Sons","","Lowell","MI","1938-1943-->",42.93286,-85.34535
"Wittenbach Sales & Service","749 West Main Street","Lowell","MI","<--1948-1980-->",42.93302,-85.3472
"Al Chinnery","101 West Foster Street","Ludington","MI","<--1946-1967-->",43.95245,-86.44918
"Al Chinnery","324 South James Street","Ludington","MI","<--1946-1967-->",43.95267,-86.4481
"City Garage","","Mackinaw City","MI","<--1958-->",45.775,-84.73009
"Northwood Motors, Inc.","","Madison Heights","MI","<--1962-1967-->",42.50474,-83.10575
"K & W Equipment","","Manchester","MI","<--1994-->",42.15041,-84.03764
"Butwell Auto Sales","","Manistee","MI","<--1948-->",44.24582,-86.3196
"Nash-Manistee Sales & Service","","Manistee","MI","<--1958-1969-->",44.24582,-86.3196
"Minelli Olds-Cadillac","100 Washington Street","Manistee","MI","<--1976-1977-->",44.24976,-86.3239
"Joe Levine","","Manistique","MI","<--1946",45.96332,-86.25766
"Linderoth Farm Supply","","Manistique","MI","<--1948-->",45.96332,-86.25766
"Walter Linderoth","162 River Street","Manistique","MI","<--1962-1973-->",45.96127,-86.24886
"Harry Van Sickle","","Maple Rapids","MI","<--1921-->",43.10699,-84.69254
"Patch & Remington","","Marcellus","MI","<--1921-->",42.02793,-85.8174
"Quality Feed & Supply Company","","Marine City","MI","<--1948-->",42.7196,-82.49207
"Stark's Garage","214 Broadway Street","Marine City","MI","",42.71924,-82.49039
"Marion Hardware Company","","Marion","MI","<--1945",44.10147,-85.14248
"A. R. Kent","","Marion","MI","<--1948-->",44.10147,-85.14248
"Bontekoe Sales & Service","7301 South Highway M-66","Marion","MI","<--1958-1980-->",44.09875,-85.14742
"Bontekoe International Trucks, Inc.","7301 South Highway M-66","Marion","MI","<--1984-1985-->",44.09875,-85.14742
"Woodland International Trucks North","7301 South Highway M-66","Marion","MI","<--1990-->",44.09875,-85.14742
"J. G. McIntyre","","Marlette","MI","<--1948-->",43.3278,-83.07985
"Thom Machinery Sales","","Marlette","MI","<--1962-->",43.3278,-83.07985
"A B C Truck Company","2724 LaMotte Street","Marlette","MI","<--1971-1980-->",43.3347,-83.08419
"Karl Wendt Farm Equipment Company / Inc.","2350 South Van Dyke Road","Marlette","MI","1974-1984",43.3709,-83.08543
"Osentoski Farm Equipment","","Marlette","MI","<--1994-->",43.3278,-83.07985
"Barker Hardware & Implement Company","","Marne","MI","<--1948-->",43.02595,-85.82771
"Marquette Public Service Garage","","Marquette","MI","<--1948-1969-->",46.54391,-87.39755
"Hornbogen Auto Sales (Inc.)","1025 West Washington Street","Marquette","MI","<--1973-1980-->",46.54562,-87.41743
"Kendall Hardware Mill Supply","","Marshall","MI","<--1948-->",42.2683,-84.96411
"Silsby Implement Company","State Street","Mason","MI","<--1948-1969-->",42.58106,-84.4461
"C. E. Hochradel","","Maybee","MI","<--1947",42.00533,-83.51498
"McBain Hardware Company","","McBain","MI","<--1948-->",44.19384,-85.21209
"C. H. Wernette","","Mecosta","MI","<--1945",43.62298,-85.23285
"Wm. Clyde","","Mendon","MI","<--1947",42.0079,-85.45317
"Lester W. Kline","","Mendon","MI","<--1948-1958-->",42.0079,-85.45317
"P. Lhote Company","","Menominee","MI","<--1920-->",45.10781,-87.61464
"Folstad Implements","900 16th Street","Menominee","MI","<--1948-1979",45.10644,-87.62264
"Glen Motors, Inc.","","Menominee","MI","<--1976-->",45.10781,-87.61464
"Knapp & Kohlschmidt","","Merrill","MI","<--1926-1928-->",45.1805223,-84.328878
"Ralph X. Siler","","Merrill","MI","<--1942-1954-->",45.1805223,-84.328878
"Fleming Implement Company","","Merrill","MI","<--1962-->",45.1805223,-84.328878
"Howard Gutherie","","Mesick","MI","<--1944",44.40377,-85.71534
"Howell & Son Implement Company","","Mesick","MI","<--1948-->",44.40377,-85.71534
"D. K. McDonald","","Middleton","MI","<--1938-->",43.18436,-84.71004
"Jack Sattler","","Middleton","MI","<--1948-1958-->",43.18436,-84.71004
"E. J. McNaughton","","Middleville","MI","<--1910-->",42.71184,-85.47002
"Finkbeiner Implement Company","201 Russell Street","Middleville","MI","<--1948-1969-->",42.70987,-85.46485
"E. J. Lee & Company","","Midland","MI","<--1948-1958-->",43.62362,-84.22554
"A. C. Graham Motors, Inc.","","Midland","MI","<--1964-->",43.62362,-84.22554
"Orin Canine","","Milan","MI","<--1944",42.085320,-83.682438
"Clarie Canine Implement Company","","Milan","MI","<--1946",42.085320,-83.682438
"Dicken Farm Supply","Highway 23","Milan","MI","<--1948-1959-->",42.0375,-83.6733
"Main Sales & Service","64 West Main Street","Milan","MI","<--1958-1976-->",42.08577,-83.68463
"Louis Gelder & Sons","","Millburg","MI","<--1930-->",42.12266,-86.34028
"Archie Osborn / Archie Osborn Sales & Service","4729 East Main Street","Millington","MI","<--1948-1969-->",43.28136,-83.52569
"O'Conner Implement Company (Inc.)","4729 East Main Street","Millington","MI","<--1971-1973-->",43.28136,-83.52569
"Farmers Elevator Company","","Minden City","MI","<--1948-->",43.67141,-82.77629
"Claude Blamer","","Mio","MI","<--1948-1958-->",44.65231,-84.12607
"Wayne Knepp","","Mio","MI","<--1962-1964-->",44.65231,-84.12607
"Raymond G. Knapp","","Monroe","MI","<--1948-->",41.91643,-83.39756
"Zorn's Garage, Inc.","626 Cooper Street","Monroe","MI","<--1958-1992-->",41.91697,-83.41516
"A. A. Anderson","","Montague","MI","<--1944",43.41861,-86.36266
"White Lake Dist.","","Montague","MI","<--1948-->",43.41861,-86.36266
"B. G. Dyer","","Montgomery","MI","<--1921-->",41.77758,-84.80392
"Goodwins Service","","Montrose","MI","<--1948-1950-->",43.17622,-83.8931
"Charles Fay","","Morenci","MI","<--1946",41.71948,-84.21743
"Doyle Graf","West Main","Morenci","MI","<--1948-->",41.71944,-84.21667
"D. H. Graf","","Morenci","MI","",41.71948,-84.21743
"Norm Glaser's Body Shop","702 North Street","Morenci","MI","<--1962-1969-->",41.72471,-84.21678
"L. F. Wolf Hardware Company","","Mt. Clemens","MI","<--1921-->",42.59679,-82.87834
"Endres Equipment Company","","Mt. Clemens","MI","<--1948-->",42.59679,-82.87834
"Townsend Equipment Company","","Mt. Clemens","MI","<--1958-->",42.59679,-82.87834
"C. H. Woolworth / Chas. H Woolworth","","Mt. Pleasant","MI","<--1926-1946",43.59811,-84.76757
"Lee Equipment Company / Lee Implement, Inc.","1198 North Mission Street","Mt. Pleasant","MI","<--1948-1984-->",43.61823,-84.76785
"Herman Enser","","Munger","MI","<--1948-->",43.522,-83.7783
"W. C. Archenbronn","","Munith","MI","<--1946",42.39394,-84.25182
"Woodrow C. Artz","","Munith","MI","<--1948-->",42.39394,-84.25182
"Stoddard Sales & Service","","Munith","MI","<--1958-->",42.39394,-84.25182
"L. C. Harr","","Munith","MI","",42.39394,-84.25182
"Buchanan Sales & Service","","Muskegon","MI","<--1924-1933-->",43.23423,-86.24656
"L & M Motor Company (Inc.)","","Muskegon","MI","<--1947-1948-->",43.23423,-86.24656
"Muskegon Truck & Tractor Company","","Muskegon","MI","<--1957-->",43.23423,-86.24656
"Inter-Cities Truck Sales & Service (Inc.)","274 West Sherman Blvd.","Muskegon Heights","MI","<--1958-1985-->",43.20547,-86.25122
"Wise International Trucks","274 West Sherman Blvd.","Muskegon Heights","MI","<--1990-->",43.20547,-86.25122
"Servais Implement Company","","Nadeau","MI","<--1948-->",45.61013,-87.54961
"Hill's Garage","","Negaunee","MI","<--1958-1969-->",46.39632,-87.54598
"Waltz Garage","28111 Waltz Road","New Boston","MI","<--1962-1990-->",42.10127,-83.39202
"Western Michigan Power Equipment","","New Era","MI","<--1994-->",43.5594,-86.34775
"New Lothrop Hardware Company","9472 Genesee Street","New Lothrop","MI","<--1948-1985-->",43.11677,-83.97309
"George W. Stover","","New Troy","MI","<--1920-->",41.87642,-86.55007
"John Woods & Son","","New Troy","MI","<--1930-->",41.87642,-86.55007
"Fosters Hardware","","Newberry","MI","<--1945",46.33244,-85.17623
"Newberry Truck & Implement (Company)","110 East Avenue C","Newberry","MI","<--1948-1976-->",46.34859,-85.5096
"Teske-Rapp Motor Company","1227 South Newberry Avenue","Newberry","MI","<--1978-1985-->",46.19464,-85.02945
"George W. Stover","","Niles","MI","<--1920-->",41.82964,-86.25254
"Niles Implement Company","","Niles","MI","<--1930-->",41.82964,-86.25254
"Custom Garage, Inc.","","Niles","MI","<--1948-->",41.82964,-86.25254
"West Motor Service","","Niles","MI","<--1958-->",41.82964,-86.25254
"West Motor Sales, Inc.","1298 South 11th Street","Niles","MI","<--1962-1980-->",41.81269,-86.24932
"Tractor Mart, Inc.","2268 Reum Road","Niles","MI","<--1979-1980-->",41.81212,-86.2251
"J. M. Williams","","North Adams","MI","<--1922-->",41.97087,-84.52557
"M. N. Wolcott","","North Adams","MI","<--1946",41.97087,-84.52557
"Keith Williams","","North Adams","MI","<--1948-->",41.97087,-84.52557
"Huddle & Carr","","North Adams","MI","<--1955-->",41.97087,-84.52557
"North Branch Implement Company","","North Branch","MI","<--1948-1958-->",43.22937,-83.19577
"North Shore Tractor Sales","1350 North Whitehall Road","North Muskegon","MI","<--1966-->",43.27687,-86.26089
"Norway Hardware Company","","Norway","MI","<--1947",45.7871,-87.90374
"O & H Farm Service","","Norway","MI","<--1948-->",45.7871,-87.90374
"Lo Dal, Inc.","","Norway","MI","<--1962-1964-->",45.7871,-87.90374
"W. H. Pickett","","Nunica","MI","<--1948-->",43.07989,-86.06698
"Oscar Rohrbacher","","Oak Grove","MI","<--1918-->",44.97265,-84.68241
"Point Super Service","","Okemos","MI","<--1958-->",42.72059,-84.42017
"Wolverine Industrial Sales","2360 East Jolly Road","Okemos","MI","<--1980-->",42.68278,-84.47132
"G. C. Adams","","Olivet","MI","<--1915-->",42.44146,-84.92437
"E. T. Burns (Inc.)","","Onaway","MI","<--1948-1958-->",45.35758,-84.22371
"Onekama Farm Bureau","","Onekama","MI","<--1928-->",44.36833,-86.20367
"Beebe & Boyd","","Onsted","MI","<--1913-->",42.0063,-84.18958
"C. J. Pentecost","","Onsted","MI","<--1920-->",42.0063,-84.18958
"V. C. Billmeyer","","Onsted","MI","<--1945",42.0063,-84.18958
"V. H. Hane Motor Sales","","Onsted","MI","<--1958-1969-->",42.0063,-84.18958
"James Corgan","","Ontonagon","MI","<--1911-1912-->",46.8709,-89.31379
"E. J. Perron & Son","","Ontonagon","MI","<--1928-1932-->",46.8709,-89.31379
"Krohn Machinery (Company)","","Ontonagon","MI","<--1943-1964-->",46.8709,-89.31379
"Frank Heinz Service","","Oscoda","MI","<--1958-->",44.42141,-83.33198
"Joe Maschino","","Otisville","MI","<--1948-->",43.16697,-83.52457
"List Sales & Service","","Otisville","MI","<--1958-->",43.16697,-83.52457
"R. C. Temple Company","110 North Main Street","Ovid","MI","<--1948-1962-->",43.0057,-84.37138
"Payne & Euler","","Owosso","MI","<--1910-->",42.99848,-84.17063
"Cook & Cook","113-117 South Ball Street","Owosso","MI","<--1926-1929-->",42.99689,-84.17151
"Cook & Cook Farm Supply Store","206 South Water Street","Owosso","MI","<--1948-->",42.99658,-84.17235
"Cook & Cook","206 South Water Street","Owosso","MI","<--1956-->",42.99658,-84.17235
"Bob Rourke Motor Sales, Inc.","","Owosso","MI","<--1958-->",42.99848,-84.17063
"Long's Rambler, Inc.","","Owosso","MI","<--1971-->",42.99848,-84.17063
"Long's American","801 West Main Street","Owosso","MI","<--1973-1976-->",42.99741,-84.18197
"Sculley Motor Sales","","Oxford","MI","<--1944",42.82473,-83.26499
"Fletcher Implement Company","","Oxford","MI","<--1948",42.82473,-83.26499
"Oxford Farm Supply Company","","Oxford","MI","<--1948-->",42.82473,-83.26499
"Tefend Motor Sales","653 Lapeer Road","Oxford","MI","<--1973-->",42.81571,-83.25603
"George Hunn","","Parma","MI","<--1920-->",42.25725,-84.59804
"S. H. Hunn","","Parma","MI","<--1945",42.25725,-84.59804
"Thomas Bros.","","Paw Paw","MI","<--1948-->",42.21765,-85.8909
"Thomas Bros. Equipment Sales, Inc.","41764 West Red Arrow Highway","Paw Paw","MI","<--1958-1976-->",42.21105,-85.95412
"Floyd Spencer","","Peck","MI","<--1946",43.25863,-82.81524
"Basil Grimes","","Peck","MI","<--1948-->",43.25863,-82.81524
"Maki's","","Pelkie","MI","<--1948-->",46.8084,-88.63635
"W. B. Sydow & Sons","","Petoskey","MI","<--1942-1958-->",45.37399,-84.95559
"Woodland Motors (Inc.)","Harbor Road","Petoskey","MI","<--1969-1976-->",45.36638,-85.01958
"Fred Taylor","","Pickford","MI","<--1915-->",46.15993,-84.36348
"E. Paul & Son","","Pigeon","MI","<--1948-->",43.82997,-83.27043
"Paul's, Inc.","","Pigeon","MI","<--1958-->",43.82997,-83.27043
"Shetler Equipment Company","South M-142","Pigeon","MI","<--1962-1965-->",43.82288,-83.27016
"Osentoski Equipment Company","425 South Main Street","Pigeon","MI","1968-2015-->",43.81752,-83.2701
"Heppner & Jacobs","","Pinconning","MI","<--1948-->",43.85337,-83.96722
"Wayne D. Jacobs","","Pinconning","MI","<--1953-1963-->",43.85337,-83.96722
"Erdody's Sales & Service","","Pinconning","MI","<--1958-1971-->",43.85337,-83.96722
"Bronkema & Smith","","Plainwell","MI","<--1948-->",42.44403,-85.64188
"Gunplain Machinery & Equipment Company, Inc.","","Plainwell","MI","<--1958-->",42.44403,-85.64188
"Eugene Vis Motor Sales","","Plainwell","MI","<--1964-->",42.44403,-85.64188
"West Brothers, Inc.","","Plymouth","MI","<--1948-->",42.37754,-83.51007
"West Brothers Nash, Inc.","534 Forest Avenue","Plymouth","MI","<--1958-->",42.36773,-83.47099
"West Brothers Motors, Inc.","","Plymouth","MI","<--1962-1969-->",42.37754,-83.51007
"Kimball Bros.","","Pontiac","MI","<--1948-->",42.63878,-83.2927
"Master Motor Sales","","Pontiac","MI","<--1958-->",42.63878,-83.2927
"Pontiac Farm & Industrial Tractor Company","","Pontiac","MI","<--1962-1967-->",42.63878,-83.2927
"Grimaldi Imported Car Company","","Pontiac","MI","<--1971-->",42.63878,-83.2927
"Reefer Truck Center","2645 Auburn Road","Pontiac","MI","<--1979-1980-->",42.67114,-83.23686
"Port Hope Implement Shop","","Port Hope","MI","<--1948-1958-->",43.94146,-82.7168
"M. E. Campbell Company, Inc.","","Port Huron","MI","<--1948-->",42.97504,-82.42452
"Bob Lane's Sales & Service","","Port Huron","MI","<--1958-1964-->",42.97504,-82.42452
"C. F. Lambert & Son / Charles F. Lambert & Sons, Inc.","1105 Wadhams Road","Port Huron","MI","<--1967-1976-->",42.965,-82.50236
"Gratiot Equipment Company","1105 Wadhams Road","Port Huron","MI","<--1979-1980-->",42.965,-82.50236
"Kuiper's Service","","Portage","MI","<--1956-->",42.20098,-85.59168
"Portland Equipment Company","751 West Grand River Avenue","Portland","MI","<--1948-1958-->",42.87143,-84.90971
"Sandborn Equipment Company","","Portland","MI","<--1962-1971-->",42.87051,-84.90237
"McCormick Equipment Company","7811 South State Road","Portland","MI","<--1984-->",42.8739,-85.07428
"Snyder Farm Supply (Inc.)","","Portland","MI","<--1994-->",42.87051,-84.90237
"A. J. Wozniak","","Posen","MI","<--1948-->",45.26398,-83.69888
"Laverty Implement Company","","Potterville","MI","<--1948-1958-->",42.62567,-84.73896
"Frank Cole","","Prescott","MI","<--1948",44.19177,-83.93256
"Bittner's Garage","","Prescott","MI","<--1948-->",44.19177,-83.93256
"Talant & Etheridge","","Quincy","MI","<--1921-->",41.94419,-84.88401
"Lester Van Hoosear","","Quincy","MI","<--1948-->",41.94419,-84.88401
"Van Hoosear's Implement Sales, Inc.","","Quincy","MI","<--1958-->",41.94419,-84.88401
"A. J. Talant","","Quincy","MI","",41.94419,-84.88401
"A. H. Moore","","Ravenna","MI","<--1948-->",43.19036,-85.94059
"Ed. Davies","","Reading","MI","<--1921-->",41.83966,-84.7479
"Marsh Farmers Supply","","Reading","MI","<--1945",41.83966,-84.7479
"Farmers Supply","","Reading","MI","<--1948-->",41.83966,-84.7479
"L. H. Remenap","","Reed City","MI","<--1928-->",43.86955,-85.50989
"Remenap Hardware & Implement Company","111 North Chestnut","Reed City","MI","<--1948-1964-->",43.87617,-85.51016
"Arndt & Nurminger","","Reese","MI","<--1923-1924-->",43.4505,-83.69439
"Gruber & Janson","9676 Saginaw Street","Reese","MI","<--1948-1958-->",43.4506,-83.68426
"Edward Mattila","","Republic","MI","<--1948-->",46.4093,-87.97514
"C. W. Beier","","Richmond","MI","<--1920-->",42.81234,-82.75805
"Frank Hyde","6644 Lumberjack Road","Riverdale","MI","<--1948-->",43.42787,-84.83616
"Frank Hyde & Son","","Riverdale","MI","<--1958-->",43.38985,-84.83605
"Hyde Equipment Company","","Riverdale","MI","<--1962-1967-->",43.38985,-84.83605
"F. C. Hyde (Company)","6644 Lumberjack Road","Riverdale","MI","<--1969-1984-->",43.42787,-84.83616
"Hyde Equipment","","Riverdale","MI","<--1965-->",43.38985,-84.83605
"M. M. Fikes","","Riverside","MI","<--1930-1948-->",42.183308,-86.383489
"Rock Co-op Company","","Rock","MI","<--1948-->",46.06852,-87.16591
"Hintons Carburetor & Ignition Service","","Rockford","MI","<--1969-->",43.11978,-85.55953
"Rogers City Cooperative Company","","Rogers City","MI","<--1948-->",45.39933,-83.94007
"Cash Motor Sales","","Rogers City","MI","<--1958-->",45.39933,-83.94007
"Gabara Motor Sales","110 South 4th Street","Rogers City","MI","<--1969-1977-->",45.41632,-83.81402
"Gabara Motor Sales","1294 West 3rd Street","Rogers City","MI","<--1969-1977-->",45.42572,-83.83179
"Chapman & McLaren","","Romeo","MI","<--1921-->",42.80153,-83.0134
"A. B. Schultz","","Romeo","MI","<--1944",42.80153,-83.0134
"H. V. Summerfield","","Romulus","MI","<--1948-->",42.22052,-83.38531
"Dugan Bros. Service","","Romulus","MI","<--1958-->",42.22052,-83.38531
"Peer's Garage","20230 Telegraph Road","Romulus","MI","<--1962-1971-->",42.15773,-83.26766
"Rutledge Brothers","","Roscommon","MI","<--1948-->",44.49433,-84.59455
"F. R. Wyckoff Lumber","","Roscommon","MI","<--1958-->",44.49433,-84.59455
"Terry & Bayliss","","Rosebush","MI","<--1944",43.70006,-84.76787
"Rothbury Truck & Tractor Company","","Rothbury","MI","<--1958-->",43.50685,-86.34773
"Rothbury Rambler Sales & Service","","Rothbury","MI","<--1964-1969-->",43.50685,-86.34773
"Rothbury AMC/Jeep, Inc.","Highway 31","Rothbury","MI","<--1977-->",43.52788,-86.34775
"H. F. Newman","","Rothbury","MI","",43.50685,-86.34773
"Northwood Motors, Inc.","31675 Stephenson Highway","Royal Oak","MI","<--1958-->",42.48868,-83.11516
"A. J. Lipsett","","Rudyard","MI","<--1915-->",46.23248,-84.59521
"D. E. Turner Hardware Company","","Rudyard","MI","<--1948-->",46.23248,-84.59521
"McDowell Equipment, Inc.","","Rudyard","MI","<--1978-->",46.23248,-84.59521
"Avery's Farm Equipment","302 Davenport Avenue","Saginaw","MI","<--1948-->",43.43756,-83.94866
"International Harvester Company","2790 Bay Road","Saginaw","MI","<--1962-1974-->",43.44605,-83.97459
"Gateway International Trucks","2790 Bay Road","Saginaw","MI","<--1976-1980-->",43.44605,-83.97459
"International Harvester Company","315 West Genesee Avenue","Saginaw","MI","<--1931-1958-->",43.43349,-83.94646
"Hutzel & Schnirring","","Saline","MI","<--1926-1927",42.16668,-83.78132
"Parsons & Dodge","","Saline","MI","1927-1932",42.16668,-83.78132
"Herman Heininger","123 West Michigan Avenue","Saline","MI","1932-1950",42.14316,-83.83818
"Wolfin-Robison Company","","Saline","MI","1950-1955",42.16668,-83.78132
"Robison-Johnson Company","123 West Michigan Avenue","Saline","MI","1955-1958",42.14316,-83.83818
"Robison-Johnson Company","173 West Michigan Avenue","Saline","MI","1955-1958",42.14316,-83.83818
"H. I. Johnson Company / Johnson's","173 West Michigan Avenue","Saline","MI","1958-1984-->",42.14316,-83.83818
"H. I. Johnson Company / Johnson's","9750 West Michigan Avenue","Saline","MI","1958-1984-->",42.14522,-83.83589
"Andrew Johnson","","Sandusky","MI","<--1920-->",43.42127,-82.83024
"Elmer Donaghy (Farm Service)","180 Hart Street","Sandusky","MI","<--1948-1984-->",43.42234,-82.83687
"J. L. Lipsett","","Sault Ste. Marie","MI","<--1911-->",46.48416,-84.29101
"J. L. Lipsett & Son","","Sault Ste. Marie","MI","<--1926-1932-->",46.48416,-84.29101
"J. L. Lipsett & Company","","Sault Ste. Marie","MI","<--1948-->",46.48416,-84.29101
"Soo Sales & Service","2405 Ashmun Street","Sault Ste. Marie","MI","<--1958-->",46.47806,-84.35362
"Newberry Truck & Implement Company","","Sault Ste. Marie","MI","<--1962-->",46.48416,-84.29101
"Ruckle Implement Company","City Limits Road","Sault Ste. Marie","MI","<--1967-1969-->",46.47623,-84.32179
"F. J. Reader & Son","","Scottville","MI","<--1912-->",43.954728,-86.27947
"Lawrence Mattix McCormick-Deering Store","","Scottville","MI","<--1939-->",43.95485,-86.27947
"W. E. Reader & Company","1 Block South of RR","Scottville","MI","<--1947-1962-->",43.954728,-86.27947
"C. W. Smith & Son, Inc.","","Scottville","MI","<--1969-->",43.95485,-86.27947
"C. J. Bolger","","Sebewaing","MI","<--1948-1967-->",43.72967,-83.44599
"A. J. Rankin","","Shelby","MI","",42.68406,-83.0344
"Smith Tractor & Motor (Sales)","","Shepherd","MI","<--1948-1964-->",43.52428,-84.69475
"H. Petersen's Son","","Sidney","MI","<--1947",43.24998,-85.13322
"Chas. F. Lambert & Son","","Smiths Creek","MI","<--1948-1964-->",42.9163,-82.6039
"M. W. Jacobs","","Snover","MI","<--1947",43.46115,-82.97069
"Winston A. Dorman","","Snover","MI","<--1948-->",43.46115,-82.97069
"W. A. Dorman Farm Implements","","Snover","MI","<--1951-->",43.46115,-82.97069
"Andrew Leutheuser & Company","","Somerset","MI","<--1948-->",42.04839,-84.37689
"South Haven Auto Sales, Inc.","","South Haven","MI","<--1958-->",42.40409,-86.27112
"C. R. Bradley","","South Lyon","MI","<--1945",42.4606,-83.65149
"Spencer Implement Company","","South Lyon","MI","<--1947-->",42.4606,-83.65149
"William F. Spencer","","South Lyon","MI","<--1948-->",42.4606,-83.65149
"Wolverine Tractor & Equipment Company","25900 West 8 Mile Road","Southfield","MI","<--1979-1980-->",42.44406,-83.29871
"D. J. Johnson","","Sparta","MI","<--1943-->",43.1584,-85.7101
"D. J. Johnson & Bro.","","Sparta","MI","<--1948",43.1584,-85.7101
"Sparta Farm & Lawn Equipment","1550 10 Mile Road NW","Sparta","MI","<--1994-1997-->",43.11631,-85.70749
"Charles Miller","","Springport","MI","<--1944",42.3783,-84.69681
"J. W. Brigham & Company","","Springport","MI","<--1948",42.3783,-84.69681
"Springport Hardware","","Springport","MI","<--1948-->",42.3783,-84.69681
"McClure Implement Sales","121 Main Street","Springport","MI","<--1958-1976-->",42.37829,-84.70401
"Thompson Hardware & Farm Machinery","","Spruce","MI","<--1948-->",44.84407,-83.46592
"R. D. Thompson Sales & Service","","Spruce","MI","<--1958-1964-->",44.84407,-83.46592
"Thompson Sales & Service","","Spruce","MI","<--1967-1974-->",44.84407,-83.46592
"Hartley Lumber Company","","St. Charles","MI","<--1948-->",43.29937,-84.14289
"Wing Motor Sales","","St. Ignace","MI","<--1948-->",45.86627,-84.72048
"Wm. Montague & Son(s)","","St. Johns","MI","<--1948-->",43.00144,-84.5585
"Oliver Montague","508 North Clinton Avenue","St. Johns","MI","<--1958-1973-->",43.00595,-84.55797
"S & H Farm Sales & Service","","St. Johns","MI","<--1994-->",43.00144,-84.5585
"Moon Track Company","Langley Avenue","St. Joseph","MI","<--1930-->",42.09666,-86.47568
"Community Hardware Company","","St. Louis","MI","<--1945",43.40786,-84.60711
"Major Auto Company (Inc.)","220 South Main Street","Standish","MI","<--1948-1977-->",43.98015,-83.96015
"Miscisin Brothers","","Standish","MI","<--1994-->",43.98275,-83.95972
"John W. S. Pierson & Company","","Stanton","MI","1902-1910-->",43.2926,-85.08481
"Wm. B. Winter","","Stephenson","MI","<--1944",45.41402,-87.6099
"Stephenson Implement Company","","Stephenson","MI","<--1947",45.41402,-87.6099
"Stephenson Marketing Association","","Stephenson","MI","<--1948-->",45.41402,-87.6099
"Howard D. Firth","","Sterling","MI","<--1945",42.58756,-83.01098
"C. G. Lantis & Sons","123 West Main Street","Stockbridge","MI","<--1948-1977-->",42.45119,-84.18108
"Weaver & Lingg (Inc.)","South Centerville Road","Sturgis","MI","<--1948-1980-->",41.76679,-85.42818
"Bolen International, Inc.","68695 White School Road","Sturgis","MI","<--1984-->",41.80025,-85.44816
"H. F. Rey","","Sunfield","MI","<--1945",42.76243,-84.99513
"Huffman's Sales & Service","","Suttons Bay","MI","<--1958-1964-->",44.97909,-85.65377
"Wayne Porter Sales","","Suttons Bay","MI","<--1967-1969-->",44.97909,-85.65377
"Tawas Hi Speed Company","","Tawas City","MI","<--1945",44.2697,-83.51474
"Gingerich Feed & Supply Store","","Tawas City","MI","<--1948-->",44.2697,-83.51474
"Ottawa Equipment Company","840 East Lake Street","Tawas City","MI","<--1958-1974-->",44.27637,-83.50263
"Boelter Bros.","Telegraph Road & Goddard Road","Taylor","MI","",42.22645,-83.26893
"International Harvester Used Truck Center","7067 South Telegraph Road","Taylor","MI","<--1982-1983-->",42.2284,-83.26943
"L. E. Temple & Company","","Tecumseh","MI","<--1914-->",42.00407,-83.94521
"H. E. Shelan","","Tecumseh","MI","<--1921-->",42.00407,-83.94521
"Robinson Farm Equipment","","Tecumseh","MI","<--1948-->",42.00407,-83.94521
"Tecumseh Equipment Company","2485 Monroe Road","Tecumseh","MI","<--1962-1985-->",42.00531,-83.97591
"Teeters Service","","Tekonsha","MI","<--1948-->",42.096,-84.98863
"Milliman's Sales & Service","","Tekonsha","MI","<--1958-->",42.096,-84.98863
"Bofia Motor Sales","","Temperance","MI","<--1962-1971-->",41.77935,-83.56886
"Warren W. Hoshel","Highway 131 at Highway 60","Three Rivers","MI","<--1948-1973-->",41.93695,-85.6517
"Don Sheeley Oldsmobile","1170 West Michigan Avenue","Three Rivers","MI","<--1974-->",41.94232,-85.64765
"Albright Motor Sales","1170 West Michigan Avenue","Three Rivers","MI","<--1976-->",41.94232,-85.64765
"A. Lahikainen","","Toivola","MI","<--1944",46.84446,-88.94484
"Louis Mikulich","","Traunik","MI","<--1948-->",46.20223,-86.97006
"Queen City Implement Company","","Traverse City","MI","<--1910-->",44.75909,-85.60547
"Smith & Benner Implement Company","","Traverse City","MI","<--1931-->",44.75909,-85.60547
"Traverse City Implement Company","116 East State Street","Traverse City","MI","<--1947-1949-->",44.76296,-85.60546
"Youker Implement Company","Highway 31 South","Traverse City","MI","1955-1969-->",44.76732,-85.63039
"Twin-Bay (Inc.)","2751 North Memorial Highway","Traverse City","MI","<--1973-1990-->",44.72811,-85.64687
"Twin-Bay (Inc.)","Highway 31 South","Traverse City","MI","<--1973-1990-->",44.76732,-85.63039
"Trenary Farmers Co-op Store","","Trenary","MI","<--1948-1958-->",46.26043,-87.0431
"Trenton Truck Sales & Service","","Trenton","MI","<--1958-->",42.14086,-83.17796
"Northwood Motors, Inc.","","Troy","MI","<--1969-->",42.56294,-83.15404
"People's Hardware Company","","Turner","MI","<--1948-1958-->",44.1423,-83.78766
"Fred T. Veldsma","","Tustin","MI","<--1944",44.10127,-85.45889
"Bukoski Bros.","","Ubly","MI","<--1946",43.71152,-82.93379
"J. B. Washburn","","Union City","MI","<--1948-1958-->",42.06646,-85.13464
"Washburn Implement & Auto Sales","Located on M-60","Union City","MI","<--1962-1969-->",42.08581,-85.11983
"Sharps Farm Equipment","","Unionville","MI","<--1948-->",43.65465,-83.4664
"Theo. K. Schmidt & Son","3043 Bay Street","Unionville","MI","<--1958-1973-->",43.65352,-83.4686
"Siviter & Wilmot","","Utica","MI","<--1948-->",42.62606,-83.03338
"Weingartz Supply","","Utica","MI","<--1962-1964-->",42.62606,-83.03338
"Monicatti Chrysler-Plymouth","4025 Auburn Road","Utica","MI","<--1971-1974-->",42.63965,-83.07223
"Gruber & Roth","948 West Huron Avenue","Vassar","MI","<--1940-->",43.36859,-83.56872
"Gruber Farm Equipment","948 West Huron Avenue","Vassar","MI","<--1948-1958-->",43.36859,-83.56872
"Fuller Farm Equipment","","Vassar","MI","<--1962-->",43.37203,-83.58342
"Lovell Implement Company","","Vermontville","MI","<--1948-1958-->",42.62915,-85.02477
"J. F. Follmer","","Vicksburg","MI","<--1919",42.11882,-85.53095
"Helms & Sons, Inc.","","Vicksburg","MI","<--1948-->",42.11882,-85.53095
"Harre & Fink Sales & Service","","Vicksburg","MI","<--1962-1964-->",42.11882,-85.53095
"Harre & Fink, Inc.","North Main Street","Vicksburg","MI","<--1967-1971-->",42.12238,-85.53247
"Farmland Equipment, Inc.","1728 East VW Avenue","Vicksburg","MI","<--1979-1984-->",42.12065,-85.56602
"Helms Tractor Sales","","Vicksburg","MI","",42.11882,-85.53095
"Thomas Te Bos","","Vogel Center","MI","<--1948-->",44.18784,-85.04832
"Cloon Motor Company","","Wakefield","MI","<--1962-1971-->",46.47774,-89.94106
"E. J. Wilson","","Waldron","MI","<--1920-->",41.7252,-84.41885
"A. L. Sheppard","","Waldron","MI","<--1948-->",41.7252,-84.41885
"Waldron Implement (Company)","125 North Main Street","Waldron","MI","<--1968-1984-->",41.72868,-84.4186
"Vreeland Bros. Sales & Service","","Walled Lake","MI","<--1958-->",42.53767,-83.48144
"Eastland International Truck Sales, Inc.","","Warren","MI","<--1969-->",42.52144,-83.02018
"Eastland Truck Sales (Inc.)","22349 Groesbeck Highway","Warren","MI","<--1971-1980-->",42.46011,-82.99487
"Luchtman & Payne","","Washington","MI","<--1921-->",42.72453,-83.0359
"Davis Hardware","","Washington","MI","<--1948-->",42.72453,-83.0359
"Edward Alfen","","Wayland","MI","<--1945",42.6738,-85.64154
"Merle Rairigh","","Wayland","MI","<--1948-1958-->",42.6738,-85.64154
"Merle's Farm Equipment Company","","Wayland","MI","<--1962-->",42.6738,-85.64154
"Harold Dietrich","3939 South Wayne Road","Wayne","MI","<--1973-1974-->",42.27937,-83.38473
"Ed Carpenter Sales, Inc.","3850 Howe Road","Wayne","MI","<--1979-1980-->",42.2798,-83.37291
"Ed Carpenter Sales, Inc.","33640 Michigan Avenue","Wayne","MI","<--1979-1980-->",42.28232,-83.37147
"Roy F. Carscallen","","West Branch","MI","<--1948-1958-->",44.27626,-84.2452
"Carscallen Equipment","","West Branch","MI","<--1962-1964-->",44.27626,-84.2452
"Sheltrown Equipment Company","225 Court Street","West Branch","MI","<--1971-1976-->",44.27397,-84.24626
"Charles Wangler Sales & Service","114 South 4th Street","West Branch","MI","<--1979-1980-->",44.27571,-84.23978
"Westphalia Hardware Company","","Westphalia","MI","<--1921-->",42.93331,-84.79881
"Fleming Implement Company","","Wheeler","MI","<--1964-->",43.40795,-84.43742
"International Harvester Company","9232 East Monroe Road","Wheeler","MI","<--1971-1974-->",43.40759,-84.42512
"Crumbaugh International, Inc.","9232 East Monroe Road","Wheeler","MI","<--1976-1985-->",43.40759,-84.42512
"J. H. Kash, Inc.","","White Pigeon","MI","<--1962-1967-->",41.79264,-85.86577
"Joe Danin Company","","Whittemore","MI","<--1945",44.23372,-83.80202
"Ed Graham & Sons","","Whittemore","MI","<--1948-1958-->",44.23372,-83.80202
"J. E. Fraser","","Williamston","MI","<--1930-->",42.68924,-84.28321
"Siegel & Siegel","","Williamston","MI","<--1944",42.68924,-84.28321
"Wollpert Farm Service","","Williamston","MI","<--1948-1958-->",42.68924,-84.28321
"Williamston Implement Company","105 High Street","Williamston","MI","<--1962-1984-->",42.69027,-84.28282
"Wilbur L. Jones","","Wolverine","MI","<--1948-->",45.27402,-84.60488
"Wagner's Truck Sales & Service","940 Biddle Avenue","Wyandotte","MI","",42.22482,-83.1505
"Geo. McIntyre","","Yale","MI","<--1912-->",43.12996,-82.7983
"Wharton & Company","","Yale","MI","<--1913-->",43.12996,-82.7983
"Russell D. Seaton","","Yale","MI","<--1948-->",43.12996,-82.7983
"Ypsi Body Shop","","Ypsilanti","MI","<--1958-->",42.23981,-83.61454
"Teachout Motor Sales","","Ypsilanti","MI","<--1962-->",42.23981,-83.61454
"Superior Equipment Company","","Ypsilanti","MI","<--1964-1967-->",42.23981,-83.61454
"Isaac Van Dyke Company","","Zeeland","MI","<--1921-->",42.80709,-86.01886
